{
  "type": "FeatureCollection",
  "features": [
    {
      "type": "Feature",
      "properties": {
        "norad_id": 41866,
        "name": "GOES 16",
        "group": "weather",
        "lat": -0.034559446307593236,
        "lon": -51.00252536883227,
        "alt_km": 35777.52704217117,
        "timestamp": "2025-12-03T22:42:32.302362+00:00",
        "meta_object_name": "GOES 16",
        "meta_object_id": "2016-071A",
        "meta_epoch": "2025-12-03T12:08:21.600384",
        "meta_mean_motion": 1.00270581,
        "meta_eccentricity": 0.0003423,
        "meta_inclination": 0.0594,
        "meta_ra_of_asc_node": 106.3408,
        "meta_arg_of_pericenter": 150.5537,
        "meta_mean_anomaly": 253.1186,
        "meta_ephemeris_type": 0,
        "meta_classification_type": "U",
        "meta_norad_cat_id": 41866,
        "meta_element_set_no": 999,
        "meta_rev_at_epoch": 3314,
        "meta_bstar": 0,
        "meta_mean_motion_dot": -7.3e-07,
        "meta_mean_motion_ddot": 0,
        "tle_line1": "1 41866U 16071A   25337.50580556 -.00000073  00000+0  00000+0 0  9993",
        "tle_line2": "2 41866   0.0594 106.3408 0003423 150.5537 253.1186  1.00270581 33146"
      },
      "geometry": {
        "type": "Point",
        "coordinates": [
          -51.00252536883227,
          -0.034559446307593236
        ]
      }
    },
    {
      "type": "Feature",
      "properties": {
        "norad_id": 41882,
        "name": "FENGYUN 4A",
        "group": "weather",
        "lat": 1.8035395064292667,
        "lon": 177.3414845872133,
        "alt_km": 35769.67540635175,
        "timestamp": "2025-12-03T22:42:32.302372+00:00",
        "meta_object_name": "FENGYUN 4A",
        "meta_object_id": "2016-077A",
        "meta_epoch": "2025-12-03T10:55:14.513376",
        "meta_mean_motion": 1.00278173,
        "meta_eccentricity": 0.0005038,
        "meta_inclination": 1.8238,
        "meta_ra_of_asc_node": 82.48,
        "meta_arg_of_pericenter": 141.9211,
        "meta_mean_anomaly": 135.6813,
        "meta_ephemeris_type": 0,
        "meta_classification_type": "U",
        "meta_norad_cat_id": 41882,
        "meta_element_set_no": 999,
        "meta_rev_at_epoch": 3296,
        "meta_bstar": 0,
        "meta_mean_motion_dot": -3.39e-06,
        "meta_mean_motion_ddot": 0,
        "tle_line1": "1 41882U 16077A   25337.45502909 -.00000339  00000+0  00000+0 0  9992",
        "tle_line2": "2 41882   1.8238  82.4800 0005038 141.9211 135.6813  1.00278173 32960"
      },
      "geometry": {
        "type": "Point",
        "coordinates": [
          177.3414845872133,
          1.8035395064292667
        ]
      }
    },
    {
      "type": "Feature",
      "properties": {
        "norad_id": 41884,
        "name": "CYGFM05",
        "group": "weather",
        "lat": -33.48001635911265,
        "lon": -4.239541101406903,
        "alt_km": 433.01010741083064,
        "timestamp": "2025-12-03T22:42:32.302383+00:00",
        "meta_object_name": "CYGFM05",
        "meta_object_id": "2016-078A",
        "meta_epoch": "2025-12-03T10:46:29.713728",
        "meta_mean_motion": 15.47102869,
        "meta_eccentricity": 0.0009436,
        "meta_inclination": 34.9579,
        "meta_ra_of_asc_node": 107.7956,
        "meta_arg_of_pericenter": 93.9258,
        "meta_mean_anomaly": 266.2542,
        "meta_ephemeris_type": 0,
        "meta_classification_type": "U",
        "meta_norad_cat_id": 41884,
        "meta_element_set_no": 999,
        "meta_rev_at_epoch": 49832,
        "meta_bstar": 0.00048563,
        "meta_mean_motion_dot": 0.00025434,
        "meta_mean_motion_ddot": 0,
        "tle_line1": "1 41884U 16078A   25337.44895502  .00025434  00000+0  48563-3 0  9990",
        "tle_line2": "2 41884  34.9579 107.7956 0009436  93.9258 266.2542 15.47102869498323"
      },
      "geometry": {
        "type": "Point",
        "coordinates": [
          -4.239541101406903,
          -33.48001635911265
        ]
      }
    },
    {
      "type": "Feature",
      "properties": {
        "norad_id": 41885,
        "name": "CYGFM04",
        "group": "weather",
        "lat": 25.17789977100649,
        "lon": 121.91266119884186,
        "alt_km": 411.48738637909355,
        "timestamp": "2025-12-03T22:42:32.302392+00:00",
        "meta_object_name": "CYGFM04",
        "meta_object_id": "2016-078B",
        "meta_epoch": "2025-12-03T10:08:06.281088",
        "meta_mean_motion": 15.49773185,
        "meta_eccentricity": 0.0008472,
        "meta_inclination": 34.9344,
        "meta_ra_of_asc_node": 83.0107,
        "meta_arg_of_pericenter": 124.6637,
        "meta_mean_anomaly": 235.4884,
        "meta_ephemeris_type": 0,
        "meta_classification_type": "U",
        "meta_norad_cat_id": 41885,
        "meta_element_set_no": 999,
        "meta_rev_at_epoch": 49849,
        "meta_bstar": 0.001011,
        "meta_mean_motion_dot": 0.0005844,
        "meta_mean_motion_ddot": 0,
        "tle_line1": "1 41885U 16078B   25337.42229492  .00058440  00000+0  10110-2 0  9997",
        "tle_line2": "2 41885  34.9344  83.0107 0008472 124.6637 235.4884 15.49773185498492"
      },
      "geometry": {
        "type": "Point",
        "coordinates": [
          121.91266119884186,
          25.17789977100649
        ]
      }
    },
    {
      "type": "Feature",
      "properties": {
        "norad_id": 41886,
        "name": "CYGFM02",
        "group": "weather",
        "lat": 10.036708770070065,
        "lon": 92.6995112074913,
        "alt_km": 413.3306613016857,
        "timestamp": "2025-12-03T22:42:32.302402+00:00",
        "meta_object_name": "CYGFM02",
        "meta_object_id": "2016-078C",
        "meta_epoch": "2025-12-03T10:16:32.221344",
        "meta_mean_motion": 15.51099847,
        "meta_eccentricity": 0.0010218,
        "meta_inclination": 34.943,
        "meta_ra_of_asc_node": 81.4183,
        "meta_arg_of_pericenter": 123.4037,
        "meta_mean_anomaly": 236.7664,
        "meta_ephemeris_type": 0,
        "meta_classification_type": "U",
        "meta_norad_cat_id": 41886,
        "meta_element_set_no": 999,
        "meta_rev_at_epoch": 49862,
        "meta_bstar": 0.0005033,
        "meta_mean_motion_dot": 0.0003039,
        "meta_mean_motion_ddot": 0,
        "tle_line1": "1 41886U 16078C   25337.42815071  .00030390  00000+0  50330-3 0  9995",
        "tle_line2": "2 41886  34.9430  81.4183 0010218 123.4037 236.7664 15.51099847498621"
      },
      "geometry": {
        "type": "Point",
        "coordinates": [
          92.6995112074913,
          10.036708770070065
        ]
      }
    },
    {
      "type": "Feature",
      "properties": {
        "norad_id": 41887,
        "name": "CYGFM01",
        "group": "weather",
        "lat": -34.278811160648516,
        "lon": 29.46564199260514,
        "alt_km": 431.5944168138685,
        "timestamp": "2025-12-03T22:42:32.302412+00:00",
        "meta_object_name": "CYGFM01",
        "meta_object_id": "2016-078D",
        "meta_epoch": "2025-12-03T12:12:56.259072",
        "meta_mean_motion": 15.47669639,
        "meta_eccentricity": 0.0009043,
        "meta_inclination": 34.9409,
        "meta_ra_of_asc_node": 109.818,
        "meta_arg_of_pericenter": 85.8716,
        "meta_mean_anomaly": 274.3039,
        "meta_ephemeris_type": 0,
        "meta_classification_type": "U",
        "meta_norad_cat_id": 41887,
        "meta_element_set_no": 999,
        "meta_rev_at_epoch": 49827,
        "meta_bstar": 0.00049412,
        "meta_mean_motion_dot": 0.00026397,
        "meta_mean_motion_ddot": 0,
        "tle_line1": "1 41887U 16078D   25337.50898448  .00026397  00000+0  49412-3 0  9995",
        "tle_line2": "2 41887  34.9409 109.8180 0009043  85.8716 274.3039 15.47669639498271"
      },
      "geometry": {
        "type": "Point",
        "coordinates": [
          29.46564199260514,
          -34.278811160648516
        ]
      }
    },
    {
      "type": "Feature",
      "properties": {
        "norad_id": 41888,
        "name": "CYGFM08",
        "group": "weather",
        "lat": -32.34685064662209,
        "lon": 24.962882646416983,
        "alt_km": 429.214772733535,
        "timestamp": "2025-12-03T22:42:32.302421+00:00",
        "meta_object_name": "CYGFM08",
        "meta_object_id": "2016-078E",
        "meta_epoch": "2025-12-03T10:37:53.516928",
        "meta_mean_motion": 15.48843081,
        "meta_eccentricity": 0.0010695,
        "meta_inclination": 34.9448,
        "meta_ra_of_asc_node": 93.3476,
        "meta_arg_of_pericenter": 111.7091,
        "meta_mean_anomaly": 248.4771,
        "meta_ephemeris_type": 0,
        "meta_classification_type": "U",
        "meta_norad_cat_id": 41888,
        "meta_element_set_no": 999,
        "meta_rev_at_epoch": 49849,
        "meta_bstar": 0.00050658,
        "meta_mean_motion_dot": 0.00028227,
        "meta_mean_motion_ddot": 0,
        "tle_line1": "1 41888U 16078E   25337.44298052  .00028227  00000+0  50658-3 0  9992",
        "tle_line2": "2 41888  34.9448  93.3476 0010695 111.7091 248.4771 15.48843081498495"
      },
      "geometry": {
        "type": "Point",
        "coordinates": [
          24.962882646416983,
          -32.34685064662209
        ]
      }
    }
  ]
}